[{"OBJECT_NAME":"STARLINK-5011","OBJECT_ID":"2022-119AR","EPOCH":"2026-03-09T21:47:57.243552","MEAN_MOTION":15.0882433,"ECCENTRICITY":0.00010101,"INCLINATION":53.2185,"RA_OF_ASC_NODE":312.7417,"ARG_OF_PERICENTER":75.2053,"MEAN_ANOMALY":284.9051,"EPHEMERIS_TYPE":0,"CLASSIFICATION_TYPE":"U","NORAD_CAT_ID":53925,"ELEMENT_SET_NO":999,"REV_AT_EPOCH":19186,"BSTAR":0.00014535131,"MEAN_MOTION_DOT":2.025e-5,"MEAN_MOTION_DDOT":0},{"OBJECT_NAME":"CZ-6A DEB","OBJECT_ID":"2024-140RN","EPOCH":"2026-03-09T09:36:23.350464","MEAN_MOTION":14.99974811,"ECCENTRICITY":0.0047719,"INCLINATION":88.1445,"RA_OF_ASC_NODE":217.6461,"ARG_OF_PERICENTER":172.1525,"MEAN_ANOMALY":188.0467,"EPHEMERIS_TYPE":0,"CLASSIFICATION_TYPE":"U","NORAD_CAT_ID":61168,"ELEMENT_SET_NO":999,"REV_AT_EPOCH":8322,"BSTAR":0.0063622011,"MEAN_MOTION_DOT":0.00081758,"MEAN_MOTION_DDOT":0}]
